{"epoch":1784799577,"count":18318,"objects":[{"id":"54033","name":"ANGOSAT 2","type":"PAYLOAD","l1":"1 54033U 22131A   26203.97533854  .00000140  00000-0  00000-0 0  9996","l2":"2 54033   0.0178 128.1010 0000236   1.9648 184.7757  1.00273873 13830"},{"id":"54048","name":"HOTBIRD 13F","type":"PAYLOAD","l1":"1 54048U 22134A   26203.88092090  .00000091  00000-0  00000-0 0  9992","l2":"2 54048   0.0548 281.3184 0002083  85.4734 263.9671  1.00271294 13735"},{"id":"54219","name":"LDPE-2","type":"PAYLOAD","l1":"1 54219U 22144A   26203.66118434 -.00000017  00000-0  00000-0 0  9999","l2":"2 54219   5.6818  63.2457 0002568 105.1521 246.8295  1.00546673 12195"},{"id":"54225","name":"HOTBIRD 13G","type":"PAYLOAD","l1":"1 54225U 22146A   26203.88092137  .00000091  00000-0  00000-0 0  9994","l2":"2 54225   0.0529 227.0776 0001943 305.9668  97.7135  1.00271214  7828"},{"id":"54230","name":"CHINASAT 19","type":"PAYLOAD","l1":"1 54230U 22148A   26203.93177703 -.00000077  00000-0  00000-0 0  9996","l2":"2 54230   0.0130  82.1820 0003385  55.8625 301.2492  1.00272474 13733"},{"id":"54243","name":"GALAXY 31","type":"PAYLOAD","l1":"1 54243U 22153A   26203.66161767  .00000000  00000-0  00000-0 0  9994","l2":"2 54243   0.0150  65.9990 0001431  59.0264 292.5687  1.00272425  7480"},{"id":"54244","name":"GALAXY 32","type":"PAYLOAD","l1":"1 54244U 22153B   26203.59629037 -.00000171  00000-0  00000-0 0  9996","l2":"2 54244   0.0072  38.7271 0001501  18.3215   6.9584  1.00272075 13498"},{"id":"54259","name":"EUTELSAT 10B","type":"PAYLOAD","l1":"1 54259U 22157A   26203.87475385  .00000072  00000-0  00000-0 0  9991","l2":"2 54259   0.0582  96.5983 0001929 358.1830 170.6939  1.00271924 13387"},{"id":"54741","name":"GALAXY 35","type":"PAYLOAD","l1":"1 54741U 22170A   26203.80977211 -.00000158  00000-0  00000-0 0  9996","l2":"2 54741   0.0016 347.8181 0002099 131.7232  19.4166  1.00271596 13250"},{"id":"54742","name":"GALAXY 36","type":"PAYLOAD","l1":"1 54742U 22170B   26203.81046544 -.00000181  00000-0  00000-0 0  9990","l2":"2 54742   0.0218 125.7276 0002758 335.2189  42.3700  1.00272133 13131"},{"id":"54743","name":"METEOSAT 12 (MTG I1)","type":"PAYLOAD","l1":"1 54743U 22170C   26203.92974457 -.00000005  00000-0  00000-0 0  9991","l2":"2 54743   0.7327  21.0008 0004160  81.0689 172.9063  1.00270034 13333"},{"id":"55131","name":"SJ-23","type":"PAYLOAD","l1":"1 55131U 23002A   26203.52822448 -.00000358  00000-0  00000+0 0  9996","l2":"2 55131   3.8057  77.8677 0003374 277.0595 259.4329  1.00073931 12869"},{"id":"55239","name":"APSTAR 6E","type":"PAYLOAD","l1":"1 55239U 23005A   26202.92061475 -.00000315  00000-0  00000-0 0  9990","l2":"2 55239   0.0410 241.2606 0003590 325.0758 198.7590  1.00273212 19039"},{"id":"55263","name":"USA 342","type":"PAYLOAD","l1":"1 55263U 23008A   26200.33994240  .00000000  00000-0  00000+0 0  9997","l2":"2 55263   0.0047  62.4879 0000215 103.9152 276.9334  1.00270942 12832"},{"id":"55506","name":"ELEKTRO-L 4","type":"PAYLOAD","l1":"1 55506U 23016A   26203.70493466 -.00000055  00000-0  00000-0 0  9996","l2":"2 55506   0.1024 279.3701 0001647 259.8669 180.7513  1.00270995 12698"},{"id":"55508","name":"AMAZONAS NEXUS","type":"PAYLOAD","l1":"1 55508U 23017A   26203.91327733 -.00000278  00000-0  00000-0 0  9992","l2":"2 55508   0.0341  44.1860 0004522  47.2775 116.9658  1.00270353  7409"},{"id":"55686","name":"CHINASAT-26","type":"PAYLOAD","l1":"1 55686U 23023A   26203.92423699 -.00000350  00000-0  00000-0 0  9996","l2":"2 55686   0.0600  71.6917 0003507  31.6837 295.0866  1.00267304 12587"},{"id":"55841","name":"LUCH (OLYMP) 2","type":"PAYLOAD","l1":"1 55841U 23031A   26203.41262308  .00000036  00000-0  00000+0 0  9999","l2":"2 55841   0.0266  95.1545 0001404 179.4046 236.1308  1.00271960 12291"},{"id":"55912","name":"GAOFEN 13 02","type":"PAYLOAD","l1":"1 55912U 23036A   26203.92883035 -.00000214  00000-0  00000-0 0  9995","l2":"2 55912   1.0304   5.5441 0003465 339.5945  78.2001  1.00273421 12457"},{"id":"55970","name":"SES 18","type":"PAYLOAD","l1":"1 55970U 23038A   26203.59386369 -.00000097  00000-0  00000-0 0  9991","l2":"2 55970   0.0611 261.0548 0001024 286.5759 223.3921  1.00272276 12452"},{"id":"55971","name":"SES 19","type":"PAYLOAD","l1":"1 55971U 23038B   26203.65893100  .00000091  00000-0  00000-0 0  9998","l2":"2 55971   0.0406 274.7653 0001890 207.4319 280.5179  1.00274034 12441"},{"id":"56174","name":"INTELSAT 40E","type":"PAYLOAD","l1":"1 56174U 23052A   26203.31113462 -.00000171  00000-0  00000-0 0  9999","l2":"2 56174   0.0163  89.4150 0002514  54.2101 177.4372  1.00271382 12173"},{"id":"56370","name":"VIASAT 3-F1","type":"PAYLOAD","l1":"1 56370U 23060A   26203.81046544 -.00000182  00000-0  00000-0 0  9999","l2":"2 56370   0.0071  14.7978 0000561  88.8033  39.8173  1.00272039 11792"},{"id":"56371","name":"ARCTURUS","type":"PAYLOAD","l1":"1 56371U 23060B   26203.92194105 -.00000357  00000-0  00000-0 0  9993","l2":"2 56371   2.8631  79.4924 0001451 134.4405 166.5843  1.00590976 11812"},{"id":"56372","name":"GS-1","type":"PAYLOAD","l1":"1 56372U 23060C   26203.84579722 -.00000218  00000-0  00000-0 0  9993","l2":"2 56372   2.8141  79.4035 0003262 278.0952 336.7137  1.00264669  7893"},{"id":"56564","name":"BEIDOU 3 G4","type":"PAYLOAD","l1":"1 56564U 23066A   26203.92718367 -.00000276  00000-0  00000-0 0  9995","l2":"2 56564   0.4545 341.1324 0005155 182.5482 250.8292  1.00270565 11758"},{"id":"56757","name":"ARABSAT 7B (BADR 8)","type":"PAYLOAD","l1":"1 56757U 23075A   26203.86364413  .00000149  00000-0  00000-0 0  9999","l2":"2 56757   0.0743  31.1053 0003379   3.7601 242.6454  1.00273200 11473"},{"id":"56759","name":"NVS-01","type":"PAYLOAD","l1":"1 56759U 23076A   26203.92510366 -.00000330  00000-0  00000-0 0  9992","l2":"2 56759   2.0840 242.7167 0002923  17.3142 143.1804  1.00275450 11479"},{"id":"57045","name":"NUSANTARA TIGA","type":"PAYLOAD","l1":"1 57045U 23086A   26203.92839701 -.00000231  00000-0  00000-0 0  9999","l2":"2 57045   0.0364  13.8914 0002086 316.9947  90.0050  1.00269613 10112"},{"id":"57213","name":"H2SAT","type":"PAYLOAD","l1":"1 57213U 23093A   26203.87475385  .00000006  00000-0  00000-0 0  9991","l2":"2 57213   0.0256 106.9273 0000761 230.0458 279.2596  1.00272352 11270"},{"id":"57214","name":"SYRACUSE 4B","type":"PAYLOAD","l1":"1 57214U 23093B   26203.82687936  .00000000  00000-0  00000-0 0  9998","l2":"2 57214   0.0261  62.6216 0000206 102.6437  66.5224  1.00270192  7323"}]}