OBJECT_NAME,OBJECT_ID,EPOCH,MEAN_MOTION,ECCENTRICITY,INCLINATION,RA_OF_ASC_NODE,ARG_OF_PERICENTER,MEAN_ANOMALY,EPHEMERIS_TYPE,CLASSIFICATION_TYPE,NORAD_CAT_ID,ELEMENT_SET_NO,REV_AT_EPOCH,BSTAR,MEAN_MOTION_DOT,MEAN_MOTION_DDOT
ANGOSAT 2,2022-131A,2026-07-22T23:24:29.249856,1.00273873,.00002363,0.0178,128.1010,1.9648,184.7757,0,U,54033,999,1383,0,.14E-5,0
EUTELSAT HOTBIRD 13F,2022-134A,2026-07-22T21:08:31.565760,1.00271294,.00020834,0.0548,281.3184,85.4734,263.9671,0,U,54048,999,1373,0,.91E-6,0
LDPE-2,2022-144A,2026-07-22T15:52:06.326976,1.00546673,.00025681,5.6818,63.2457,105.1521,246.8295,0,U,54219,999,1219,0,-.17E-6,0
EUTELSAT HOTBIRD 13G,2022-146A,2026-07-22T21:08:31.606368,1.00271214,.0001943,0.0529,227.0776,305.9668,97.7135,0,U,54225,999,782,0,.91E-6,0
ZHONGXING-19,2022-148A,2026-07-22T22:21:45.535392,1.00272474,.0003385,0.0130,82.1820,55.8625,301.2492,0,U,54230,999,1373,0,-.77E-6,0
GALAXY 31 (G-31),2022-153A,2026-07-22T15:52:43.766688,1.00272425,.00014308,0.0150,65.9990,59.0264,292.5687,0,U,54243,999,748,0,0,0
GALAXY 32 (G-32),2022-153B,2026-07-22T14:18:39.487968,1.00272075,.00015011,0.0072,38.7271,18.3215,6.9584,0,U,54244,999,1349,0,-.171E-5,0
EUTELSAT 10B,2022-157A,2026-07-22T20:59:38.732640,1.00271924,.00019292,0.0582,96.5983,358.1830,170.6939,0,U,54259,999,1338,0,.72E-6,0
GALAXY 35 (G-35),2022-170A,2026-07-22T19:26:04.310304,1.00271596,.00020989,0.0016,347.8181,131.7232,19.4166,0,U,54741,999,1325,0,-.158E-5,0
GALAXY 36 (G-36),2022-170B,2026-07-22T19:27:04.214016,1.00272133,.00027576,0.0218,125.7276,335.2189,42.3700,0,U,54742,999,1313,0,-.181E-5,0
METEOSAT-12 (MTG-I1),2022-170C,2026-07-22T22:18:49.930848,1.00270034,.00041596,0.7327,21.0008,81.0689,172.9063,0,U,54743,999,1333,0,-.5E-7,0
SHIJIAN-23 (SJ-23),2023-002A,2026-07-22T12:40:38.595072,1.00073931,.0003374,3.8057,77.8677,277.0595,259.4329,0,U,55131,999,1286,0,-.358E-5,0
APSTAR-6E,2023-005A,2026-07-21T22:05:41.114400,1.00273212,.00035901,0.0410,241.2606,325.0758,198.7590,0,U,55239,999,1903,0,-.315E-5,0
USA 342,2023-008A,2026-07-19T08:09:31.023360,1.00270942,.0000215,0.0047,62.4879,103.9152,276.9334,0,U,55263,999,1283,0,0,0
ELEKTRO-L 4,2023-016A,2026-07-22T16:55:06.354624,1.00270995,.00016472,0.1024,279.3701,259.8669,180.7513,0,U,55506,999,1269,0,-.55E-6,0
AMAZONAS NEXUS,2023-017A,2026-07-22T21:55:07.161312,1.00270353,.00045221,0.0341,44.1860,47.2775,116.9658,0,U,55508,999,740,0,-.278E-5,0
ZHONGXING-26,2023-023A,2026-07-22T22:10:54.075936,1.00267304,.00035075,0.0600,71.6917,31.6837,295.0866,0,U,55686,999,1258,0,-.35E-5,0
LUCH-5X (OLYMP-K 2),2023-031A,2026-07-22T09:54:10.634112,1.00271960,.0001404,0.0266,95.1545,179.4046,236.1308,0,U,55841,999,1229,0,.36E-6,0
GAOFEN-13 02,2023-036A,2026-07-22T22:17:30.942240,1.00273421,.00034645,1.0304,5.5441,339.5945,78.2001,0,U,55912,999,1245,0,-.214E-5,0
SES-18,2023-038A,2026-07-22T14:15:09.822816,1.00272276,.0001024,0.0611,261.0548,286.5759,223.3921,0,U,55970,999,1245,0,-.97E-6,0
SES-19,2023-038B,2026-07-22T15:48:51.638400,1.00274034,.00018895,0.0406,274.7653,207.4319,280.5179,0,U,55971,999,1244,0,.91E-6,0
INTELSAT 40E (IS-40E),2023-052A,2026-07-22T07:28:02.031168,1.00271382,.00025135,0.0163,89.4150,54.2101,177.4372,0,U,56174,999,1217,0,-.171E-5,0
VIASAT-3 F1,2023-060A,2026-07-22T19:27:04.214016,1.00272039,.00005608,0.0071,14.7978,88.8033,39.8173,0,U,56370,999,1179,0,-.182E-5,0
ARCTURUS,2023-060B,2026-07-22T22:07:35.706720,1.00590976,.00014512,2.8631,79.4924,134.4405,166.5843,0,U,56371,999,1181,0,-.357E-5,0
GS-1,2023-060C,2026-07-22T20:17:56.879808,1.00264669,.0003262,2.8141,79.4035,278.0952,336.7137,0,U,56372,999,789,0,-.218E-5,0
BEIDOU-3 G4,2023-066A,2026-07-22T22:15:08.669088,1.00270565,.0005155,0.4545,341.1324,182.5482,250.8292,0,U,56564,999,1175,0,-.276E-5,0
ARABSAT-7B (BADR-8),2023-075A,2026-07-22T20:43:38.852832,1.00273200,.00033794,0.0743,31.1053,3.7601,242.6454,0,U,56757,999,1147,0,.149E-5,0
NVS-01 (IRNSS-1J),2023-076A,2026-07-22T22:12:08.956224,1.00275450,.00029234,2.0840,242.7167,17.3142,143.1804,0,U,56759,999,1147,0,-.33E-5,0
NUSANTARA TIGA (SATRIA),2023-086A,2026-07-22T22:16:53.501664,1.00269613,.00020855,0.0364,13.8914,316.9947,90.0050,0,U,57045,999,1011,0,-.231E-5,0
H2SAT (HEINRICH HERTZ),2023-093A,2026-07-22T20:59:38.732640,1.00272352,.00007614,0.0256,106.9273,230.0458,279.2596,0,U,57213,999,1127,0,.6E-7,0
SYRACUSE 4B,2023-093B,2026-07-22T19:50:42.376704,1.00270192,.00002065,0.0261,62.6216,102.6437,66.5224,0,U,57214,999,732,0,0,0
